{
  "norad_id": 55574,
  "name": "STARLINK-5747",
  "history": [
    {
      "epoch": "2026-03-28T22:00:01.999584Z",
      "apogee_km": 507.0257414894313,
      "perigee_km": 504.57382088670875,
      "latitude_deg": -1.2560447221347992,
      "longitude_deg": -75.435858354869,
      "height_km": 505.73430830013916,
      "semi_major_axis_km": 6883.93678118807,
      "eccentricity": 0.00017809,
      "inclination_deg": 43.0004,
      "raan_deg": 259.5629,
      "arg_perigee_deg": 271.1371,
      "mean_anomaly_deg": 270.6294,
      "mean_motion_rev_day": 15.20013524
    },
    {
      "epoch": "2026-03-29T04:00:01.999584Z",
      "apogee_km": 505.3937938559511,
      "perigee_km": 502.9780985018415,
      "latitude_deg": 39.50463837191326,
      "longitude_deg": 130.02731716960707,
      "height_km": 507.68055063143,
      "semi_major_axis_km": 6882.322946178896,
      "eccentricity": 0.0001755,
      "inclination_deg": 43.0006,
      "raan_deg": 258.1643,
      "arg_perigee_deg": 270.5704,
      "mean_anomaly_deg": 201.029,
      "mean_motion_rev_day": 15.20548197
    }
  ]
}